{
  "type": "FeatureCollection",
  "features": [
    {
      "type": "Feature",
      "properties": {
        "norad_id": 66638,
        "name": "STARLINK-35972",
        "group": "last-30-days",
        "lat": 11.330614334676882,
        "lon": 171.5186119429999,
        "alt_km": 417.3320447154656,
        "timestamp": "2025-12-17T19:34:06.800832+00:00",
        "meta_object_name": "STARLINK-35972",
        "meta_object_id": "2025-271X",
        "meta_epoch": "2025-12-17T02:28:40.636704",
        "meta_mean_motion": 15.49327581,
        "meta_eccentricity": 8.287e-05,
        "meta_inclination": 53.1592,
        "meta_ra_of_asc_node": 166.2846,
        "meta_arg_of_pericenter": 52.4442,
        "meta_mean_anomaly": 307.6643,
        "meta_ephemeris_type": 0,
        "meta_classification_type": "U",
        "meta_norad_cat_id": 66638,
        "meta_element_set_no": 999,
        "meta_rev_at_epoch": 488,
        "meta_bstar": 0.0010577304,
        "meta_mean_motion_dot": 0.00058861,
        "meta_mean_motion_ddot": 0,
        "tle_line1": "1 66638U 25271X   25351.10324811  .00058861  00000+0  10577-2 0  9991",
        "tle_line2": "2 66638  53.1592 166.2846 0000828  52.4442 307.6643 15.49327581  4882"
      },
      "geometry": {
        "type": "Point",
        "coordinates": [
          171.5186119429999,
          11.330614334676882
        ]
      }
    },
    {
      "type": "Feature",
      "properties": {
        "norad_id": 66639,
        "name": "STARLINK-35908",
        "group": "last-30-days",
        "lat": 12.879947763245829,
        "lon": 172.74493446376698,
        "alt_km": 417.28527199173186,
        "timestamp": "2025-12-17T19:34:06.800843+00:00",
        "meta_object_name": "STARLINK-35908",
        "meta_object_id": "2025-271Y",
        "meta_epoch": "2025-12-17T02:28:11.023968",
        "meta_mean_motion": 15.49335235,
        "meta_eccentricity": 0.00012435,
        "meta_inclination": 53.1596,
        "meta_ra_of_asc_node": 166.2816,
        "meta_arg_of_pericenter": 93.6421,
        "meta_mean_anomaly": 266.473,
        "meta_ephemeris_type": 0,
        "meta_classification_type": "U",
        "meta_norad_cat_id": 66639,
        "meta_element_set_no": 999,
        "meta_rev_at_epoch": 488,
        "meta_bstar": 0.0013470112,
        "meta_mean_motion_dot": 0.00075262,
        "meta_mean_motion_ddot": 0,
        "tle_line1": "1 66639U 25271Y   25351.10290537  .00075262  00000+0  13470-2 0  9998",
        "tle_line2": "2 66639  53.1596 166.2816 0001243  93.6421 266.4730 15.49335235  4884"
      },
      "geometry": {
        "type": "Point",
        "coordinates": [
          172.74493446376698,
          12.879947763245829
        ]
      }
    },
    {
      "type": "Feature",
      "properties": {
        "norad_id": 66640,
        "name": "STARLINK-35921",
        "group": "last-30-days",
        "lat": 14.365923088736094,
        "lon": 173.94041685986485,
        "alt_km": 416.59474577733,
        "timestamp": "2025-12-17T19:34:06.800853+00:00",
        "meta_object_name": "STARLINK-35921",
        "meta_object_id": "2025-271Z",
        "meta_epoch": "2025-12-17T02:27:41.322240",
        "meta_mean_motion": 15.49331878,
        "meta_eccentricity": 0.0001586,
        "meta_inclination": 53.1597,
        "meta_ra_of_asc_node": 166.2791,
        "meta_arg_of_pericenter": 66.7649,
        "meta_mean_anomaly": 293.3527,
        "meta_ephemeris_type": 0,
        "meta_classification_type": "U",
        "meta_norad_cat_id": 66640,
        "meta_element_set_no": 999,
        "meta_rev_at_epoch": 488,
        "meta_bstar": 0.001103034,
        "meta_mean_motion_dot": 0.00061432,
        "meta_mean_motion_ddot": 0,
        "tle_line1": "1 66640U 25271Z   25351.10256160  .00061432  00000+0  11030-2 0  9998",
        "tle_line2": "2 66640  53.1597 166.2791 0001586  66.7649 293.3527 15.49331878  4884"
      },
      "geometry": {
        "type": "Point",
        "coordinates": [
          173.94041685986485,
          14.365923088736094
        ]
      }
    },
    {
      "type": "Feature",
      "properties": {
        "norad_id": 66641,
        "name": "STARLINK-35923",
        "group": "last-30-days",
        "lat": 20.349073368197093,
        "lon": 178.9966133206223,
        "alt_km": 416.13026845391687,
        "timestamp": "2025-12-17T19:34:06.800863+00:00",
        "meta_object_name": "STARLINK-35923",
        "meta_object_id": "2025-271AA",
        "meta_epoch": "2025-12-16T23:19:55.482816",
        "meta_mean_motion": 15.49340799,
        "meta_eccentricity": 0.00011441,
        "meta_inclination": 53.1596,
        "meta_ra_of_asc_node": 166.8851,
        "meta_arg_of_pericenter": 93.356,
        "meta_mean_anomaly": 266.758,
        "meta_ephemeris_type": 0,
        "meta_classification_type": "U",
        "meta_norad_cat_id": 66641,
        "meta_element_set_no": 999,
        "meta_rev_at_epoch": 486,
        "meta_bstar": 0.00064055838,
        "meta_mean_motion_dot": 0.00035378,
        "meta_mean_motion_ddot": 0,
        "tle_line1": "1 66641U 25271AA  25350.97216994  .00035378  00000+0  64056-3 0  9991",
        "tle_line2": "2 66641  53.1596 166.8851 0001144  93.3560 266.7580 15.49340799  4868"
      },
      "geometry": {
        "type": "Point",
        "coordinates": [
          178.9966133206223,
          20.349073368197093
        ]
      }
    },
    {
      "type": "Feature",
      "properties": {
        "norad_id": 66642,
        "name": "STARLINK-35926",
        "group": "last-30-days",
        "lat": 18.87290043419879,
        "lon": 177.70696206586894,
        "alt_km": 416.46948733409045,
        "timestamp": "2025-12-17T19:34:06.800876+00:00",
        "meta_object_name": "STARLINK-35926",
        "meta_object_id": "2025-271AB",
        "meta_epoch": "2025-12-16T23:20:25.124928",
        "meta_mean_motion": 15.49327481,
        "meta_eccentricity": 6.721e-05,
        "meta_inclination": 53.1591,
        "meta_ra_of_asc_node": 166.888,
        "meta_arg_of_pericenter": 96.8117,
        "meta_mean_anomaly": 263.2969,
        "meta_ephemeris_type": 0,
        "meta_classification_type": "U",
        "meta_norad_cat_id": 66642,
        "meta_element_set_no": 999,
        "meta_rev_at_epoch": 482,
        "meta_bstar": 0.00094000034,
        "meta_mean_motion_dot": 0.00052215,
        "meta_mean_motion_ddot": 0,
        "tle_line1": "1 66642U 25271AB  25350.97251302  .00052215  00000+0  94000-3 0  9995",
        "tle_line2": "2 66642  53.1591 166.8880 0000672  96.8117 263.2969 15.49327481  4829"
      },
      "geometry": {
        "type": "Point",
        "coordinates": [
          177.70696206586894,
          18.87290043419879
        ]
      }
    },
    {
      "type": "Feature",
      "properties": {
        "norad_id": 66643,
        "name": "STARLINK-35918",
        "group": "last-30-days",
        "lat": 15.846262352124171,
        "lon": 175.15274521567395,
        "alt_km": 416.2240906362813,
        "timestamp": "2025-12-17T19:34:06.800886+00:00",
        "meta_object_name": "STARLINK-35918",
        "meta_object_id": "2025-271AC",
        "meta_epoch": "2025-12-17T02:27:11.991168",
        "meta_mean_motion": 15.4931764,
        "meta_eccentricity": 0.00016093,
        "meta_inclination": 53.1596,
        "meta_ra_of_asc_node": 166.277,
        "meta_arg_of_pericenter": 60.9224,
        "meta_mean_anomaly": 299.1946,
        "meta_ephemeris_type": 0,
        "meta_classification_type": "U",
        "meta_norad_cat_id": 66643,
        "meta_element_set_no": 999,
        "meta_rev_at_epoch": 488,
        "meta_bstar": 0.0013872563,
        "meta_mean_motion_dot": 0.00077499,
        "meta_mean_motion_ddot": 0,
        "tle_line1": "1 66643U 25271AC  25351.10222212  .00077499  00000+0  13873-2 0  9999",
        "tle_line2": "2 66643  53.1596 166.2770 0001609  60.9224 299.1946 15.49317640  4884"
      },
      "geometry": {
        "type": "Point",
        "coordinates": [
          175.15274521567395,
          15.846262352124171
        ]
      }
    },
    {
      "type": "Feature",
      "properties": {
        "norad_id": 66644,
        "name": "STARLINK-35938",
        "group": "last-30-days",
        "lat": 17.291643664086287,
        "lon": 176.3595103797055,
        "alt_km": 416.1090416867719,
        "timestamp": "2025-12-17T19:34:06.800908+00:00",
        "meta_object_name": "STARLINK-35938",
        "meta_object_id": "2025-271AD",
        "meta_epoch": "2025-12-17T02:26:42.133056",
        "meta_mean_motion": 15.49313513,
        "meta_eccentricity": 0.00013913,
        "meta_inclination": 53.1594,
        "meta_ra_of_asc_node": 166.275,
        "meta_arg_of_pericenter": 45.2034,
        "meta_mean_anomaly": 314.9088,
        "meta_ephemeris_type": 0,
        "meta_classification_type": "U",
        "meta_norad_cat_id": 66644,
        "meta_element_set_no": 999,
        "meta_rev_at_epoch": 488,
        "meta_bstar": 0.00073146805,
        "meta_mean_motion_dot": 0.0004045,
        "meta_mean_motion_ddot": 0,
        "tle_line1": "1 66644U 25271AD  25351.10187654  .00040450  00000+0  73147-3 0  9998",
        "tle_line2": "2 66644  53.1594 166.2750 0001391  45.2034 314.9088 15.49313513  4882"
      },
      "geometry": {
        "type": "Point",
        "coordinates": [
          176.3595103797055,
          17.291643664086287
        ]
      }
    }
  ]
}